NORAD_CAT_ID,OBJECT_NAME,OBJECT_TYPE,EPOCH,MEAN_MOTION,ECCENTRICITY,INCLINATION,RA_OF_ASC_NODE,ARG_OF_PERICENTER,MEAN_ANOMALY,BSTAR,MEAN_MOTION_DOT,MEAN_MOTION_DDOT,TLE_LINE0,TLE_LINE1,TLE_LINE2,SEMIMAJOR_AXIS,PERIOD,APOGEE,PERIGEE,DECAYED
51976.0,STARLINK-3663,PAYLOAD,2024-07-10 02:43:56,15.08834405,0.0001422,53.2169,246.4611,89.2199,270.8957,-9.1641e-06,-4.34e-06,0.0,0 STARLINK-3663,1 51976U 22025W   24192.11384752 -.00000434  00000-0 -91641-5 0  9997,2 51976  53.2169 246.4611 0001422  89.2199 270.8957 15.08834405130456,6917.897,95.438,540.746,538.779,0.0
51976.0,STARLINK-3663,PAYLOAD,2024-07-10 10:40:52,15.08834141,0.0001403,53.217,244.9743,88.6292,271.4861,-1.5083e-05,-5.28e-06,0.0,0 STARLINK-3663,1 51976U 22025W   24192.44504882 -.00000528  00000-0 -15083-4 0  9990,2 51976  53.2170 244.9743 0001403  88.6292 271.4861 15.08834141129392,6917.898,95.438,540.734,538.793,0.0
51976.0,STARLINK-3663,PAYLOAD,2024-07-11 10:31:39,15.08837593,0.0001359,53.2168,240.514,88.4122,271.7026,2.9276e-05,1.78e-06,0.0,0 STARLINK-3663,1 51976U 22025W   24193.43864777  .00000178  00000-0  29276-4 0  9990,2 51976  53.2168 240.5140 0001359  88.4122 271.7026 15.08837593129549,6917.888,95.438,540.693,538.813,0.0
51976.0,STARLINK-3663,PAYLOAD,2024-07-11 20:03:58,15.08835501,0.000135,53.2167,238.7294,85.624,274.4906,5.1733e-05,5.35e-06,0.0,0 STARLINK-3663,1 51976U 22025W   24193.83608943  .00000535  00000-0  51733-4 0  9995,2 51976  53.2167 238.7294 0001350  85.6240 274.4906 15.08835501130713,6917.894,95.438,540.693,538.825,0.0
51976.0,STARLINK-3663,PAYLOAD,2024-07-12 11:57:49,15.08837509,0.0001338,53.2165,235.7558,89.2411,270.8734,7.2576e-05,8.67e-06,0.0,0 STARLINK-3663,1 51976U 22025W   24194.49848971  .00000867  00000-0  72576-4 0  9991,2 51976  53.2165 235.7558 0001338  89.2411 270.8734 15.08837509129703,6917.888,95.438,540.679,538.827,0.0
51976.0,STARLINK-3663,PAYLOAD,2024-07-12 19:54:45,15.08836528,0.0001347,53.2165,234.269,88.0245,272.0902,4.6356e-05,4.5e-06,0.0,0 STARLINK-3663,1 51976U 22025W   24194.82969173  .00000450  00000-0  46356-4 0  9991,2 51976  53.2165 234.2690 0001347  88.0245 272.0902 15.08836528129752,6917.891,95.438,540.688,538.824,0.0
51976.0,STARLINK-3663,PAYLOAD,2024-07-13 02:16:17,15.08843342,0.0001254,53.2177,233.0689,105.5768,254.5362,3.9598e-05,3.42e-06,0.0,0 STARLINK-3663,1 51976U 22025W   24195.09464650  .00000342  00000-0  39598-4 0  9991,2 51976  53.2177 233.0689 0001254 105.5768 254.5362 15.08843342130908,6917.87,95.437,540.603,538.868,0.0
51976.0,STARLINK-3663,PAYLOAD,2024-07-13 11:48:35,15.08840288,0.0001346,53.216,231.295,91.9655,268.1491,1.7594e-05,-8e-08,0.0,0 STARLINK-3663,1 51976U 22025W   24195.49208157 -.00000008  00000-0  17594-4 0  9995,2 51976  53.2160 231.2950 0001346  91.9655 268.1491 15.08840288129858,6917.88,95.438,540.676,538.813,0.0
51976.0,STARLINK-3663,PAYLOAD,2024-07-13 19:45:31,15.08838869,0.0001322,53.2159,229.8076,92.0448,268.0696,1.847e-06,-2.59e-06,0.0,0 STARLINK-3663,1 51976U 22025W   24195.82328264 -.00000259  00000-0  18470-5 0  9997,2 51976  53.2159 229.8076 0001322  92.0448 268.0696 15.08838869129908,6917.884,95.438,540.663,538.834,0.0
51976.0,STARLINK-3663,PAYLOAD,2024-07-14 11:39:22,15.08843242,0.0001347,53.216,226.8341,90.6402,269.4744,2.5836e-05,1.23e-06,0.0,0 STARLINK-3663,1 51976U 22025W   24196.48567798  .00000123  00000-0  25836-4 0  9999,2 51976  53.2160 226.8341 0001347  90.6402 269.4744 15.08843242131119,6917.87,95.437,540.667,538.804,0.0
51976.0,STARLINK-3663,PAYLOAD,2024-07-14 19:36:18,15.08838795,0.0001305,53.2153,225.3467,91.9852,268.1289,-8.5794e-06,-4.24e-06,0.0,0 STARLINK-3663,1 51976U 22025W   24196.81688100 -.00000424  00000-0 -85794-5 0  9993,2 51976  53.2153 225.3467 0001305  91.9852 268.1289 15.08838795130050,6917.884,95.438,540.652,538.846,0.0
51976.0,STARLINK-3663,PAYLOAD,2024-07-15 11:30:08,15.08917124,0.0001712,53.2151,222.373,108.7719,251.3459,-0.0011591,-0.00018727,0.0,0 STARLINK-3663,1 51976U 22025W   24197.47925993 -.00018727  00000-0 -11591-2 0  9996,2 51976  53.2151 222.3730 0001712 108.7719 251.3459 15.08917124131260,6917.645,95.433,540.694,538.325,0.0
51976.0,STARLINK-3663,PAYLOAD,2024-07-16 04:59:25,15.08828424,0.0001416,53.2155,219.1016,95.6106,264.5048,-2.574e-05,-6.97e-06,0.0,0 STARLINK-3663,1 51976U 22025W   24198.20792940 -.00000697  00000-0 -25740-4 0  9992,2 51976  53.2155 219.1016 0001416  95.6106 264.5048 15.08828424131376,6917.916,95.438,540.76,538.801,0.0
51976.0,STARLINK-3663,PAYLOAD,2024-07-16 11:20:57,15.088282,0.0001385,53.2151,217.9128,91.8006,268.3145,-2.1611e-05,-6.32e-06,0.0,0 STARLINK-3663,1 51976U 22025W   24198.47289135 -.00000632  00000-0 -21611-4 0  9990,2 51976  53.2151 217.9128 0001385  91.8006 268.3145 15.08828200130308,6917.916,95.438,540.74,538.823,0.0
51976.0,STARLINK-3663,PAYLOAD,2024-07-17 04:50:12,15.08832955,0.0001295,53.2148,214.6423,88.7494,271.3647,8.6693e-05,1.092e-05,0.0,0 STARLINK-3663,1 51976U 22025W   24199.20152894  .00001092  00000-0  86693-4 0  9993,2 51976  53.2148 214.6423 0001295  88.7494 271.3647 15.08832955131520,6917.902,95.438,540.663,538.871,0.0
51976.0,STARLINK-3663,PAYLOAD,2024-07-17 08:00:58,15.08834252,0.0001266,53.2152,214.0484,88.1152,271.9985,9.2918e-05,1.191e-05,0.0,0 STARLINK-3663,1 51976U 22025W   24199.33400878  .00001191  00000-0  92918-4 0  9992,2 51976  53.2152 214.0484 0001266  88.1152 271.9985 15.08834252130431,6917.898,95.438,540.639,538.887,0.0
51976.0,STARLINK-3663,PAYLOAD,2024-07-18 07:51:45,15.08834851,0.0001298,53.2157,209.5879,87.1511,272.9629,8.3161e-05,1.036e-05,0.0,0 STARLINK-3663,1 51976U 22025W   24200.32761486  .00001036  00000-0  83161-4 0  9997,2 51976  53.2157 209.5879 0001298  87.1511 272.9629 15.08834851131696,6917.896,95.438,540.659,538.863,0.0
51976.0,STARLINK-3663,PAYLOAD,2024-07-18 17:24:04,15.08835926,0.0001378,53.2162,207.804,88.9781,271.1369,7.0284e-05,8.31e-06,0.0,0 STARLINK-3663,1 51976U 22025W   24200.72505612  .00000831  00000-0  70284-4 0  9992,2 51976  53.2162 207.8040 0001378  88.9781 271.1369 15.08835926130640,6917.893,95.438,540.711,538.805,0.0
51976.0,STARLINK-3663,PAYLOAD,2024-07-19 09:17:56,15.08837292,0.0001441,53.2167,204.831,91.8074,268.3083,2.0503e-05,3.8e-07,0.0,0 STARLINK-3663,1 51976U 22025W   24201.38745880  .00000038  00000-0  20503-4 0  9996,2 51976  53.2167 204.8310 0001441  91.8074 268.3083 15.08837292131854,6917.889,95.438,540.751,538.757,0.0
51976.0,STARLINK-3663,PAYLOAD,2024-07-19 17:14:52,15.08836389,0.0001426,53.2168,203.3438,89.3413,270.7743,3.141e-05,2.12e-06,0.0,0 STARLINK-3663,1 51976U 22025W   24201.71865910  .00000212  00000-0  31410-4 0  9993,2 51976  53.2168 203.3438 0001426  89.3413 270.7743 15.08836389130790,6917.891,95.438,540.743,538.77,0.0
51976.0,STARLINK-3663,PAYLOAD,2024-07-20 09:08:43,15.08840311,0.0001384,53.2163,200.3691,88.1984,271.9166,5.8772e-05,6.48e-06,0.0,0 STARLINK-3663,1 51976U 22025W   24202.38105652  .00000648  00000-0  58772-4 0  9990,2 51976  53.2163 200.3691 0001384  88.1984 271.9166 15.08840311130899,6917.879,95.438,540.702,538.787,0.0
51976.0,STARLINK-3663,PAYLOAD,2024-07-21 05:48:44,15.08839962,0.0001361,53.2159,196.5036,90.6488,269.466,9.4746e-05,1.22e-05,0.0,0 STARLINK-3663,1 51976U 22025W   24203.24217600  .00001220  00000-0  94746-4 0  9991,2 51976  53.2159 196.5036 0001361  90.6488 269.4660 15.08839962132135,6917.881,95.438,540.687,538.804,0.0
51976.0,STARLINK-3663,PAYLOAD,2024-07-21 08:59:29,15.08844791,0.0001346,53.2159,195.9081,89.4186,270.696,0.00010378,1.364e-05,0.0,0 STARLINK-3663,1 51976U 22025W   24203.37465266  .00001364  00000-0  10378-3 0  9995,2 51976  53.2159 195.9081 0001346  89.4186 270.6960 15.08844791131044,6917.866,95.437,540.662,538.8,0.0
51976.0,STARLINK-3663,PAYLOAD,2024-07-22 05:39:32,15.08840135,0.0001405,53.2159,192.0408,105.3535,254.7613,6.0517e-05,6.75e-06,0.0,0 STARLINK-3663,1 51976U 22025W   24204.23579017  .00000675  00000-0  60517-4 0  9996,2 51976  53.2159 192.0408 0001405 105.3535 254.7613 15.08840135132280,6917.88,95.438,540.717,538.773,0.0
51976.0,STARLINK-3663,PAYLOAD,2024-07-24 05:21:05,15.08852294,0.0001327,53.2161,183.1192,95.1311,264.9832,1.9004e-05,1.5e-07,0.0,0 STARLINK-3663,1 51976U 22025W   24206.22298378  .00000015  00000-0  19004-4 0  9998,2 51976  53.2161 183.1192 0001327  95.1311 264.9832 15.08852294132583,6917.843,95.437,540.626,538.79,0.0
51976.0,STARLINK-3663,PAYLOAD,2024-07-24 08:31:52,15.08852052,0.0001337,53.2162,182.5257,93.918,266.1965,1.5832e-05,-3.6e-07,0.0,0 STARLINK-3663,1 51976U 22025W   24206.35546305 -.00000036  00000-0  15832-4 0  9997,2 51976  53.2162 182.5257 0001337  93.9180 266.1965 15.08852052131492,6917.844,95.437,540.633,538.784,0.0
51976.0,STARLINK-3663,PAYLOAD,2024-07-25 03:36:29,15.08844959,0.0001412,53.2162,178.9558,97.1491,262.9662,-4.3613e-05,-9.82e-06,0.0,0 STARLINK-3663,1 51976U 22025W   24207.15034438 -.00000982  00000-0 -43613-4 0  9994,2 51976  53.2162 178.9558 0001412  97.1491 262.9662 15.08844959132722,6917.865,95.437,540.707,538.753,0.0
51976.0,STARLINK-3663,PAYLOAD,2024-07-25 21:05:44,15.08839297,0.0001398,53.2169,175.6857,97.269,262.8462,-8.6875e-06,-4.26e-06,0.0,0 STARLINK-3663,1 51976U 22025W   24207.87898432 -.00000426  00000-0 -86875-5 0  9996,2 51976  53.2169 175.6857 0001398  97.2690 262.8462 15.08839297131725,6917.883,95.438,540.715,538.78,0.0
51976.0,STARLINK-3663,PAYLOAD,2024-07-26 08:13:26,15.08841265,0.0001385,53.2166,173.605,93.7588,266.3563,5.2517e-06,-2.04e-06,0.0,0 STARLINK-3663,1 51976U 22025W   24208.34266240 -.00000204  00000-0  52517-5 0  9994,2 51976  53.2166 173.6050 0001385  93.7588 266.3563 15.08841265132908,6917.877,95.437,540.7,538.783,0.0
51976.0,STARLINK-3663,PAYLOAD,2024-07-26 14:34:58,15.08841532,0.0001286,53.2163,172.4161,88.1483,271.9657,1.6482e-05,-2.6e-07,0.0,0 STARLINK-3663,1 51976U 22025W   24208.60762136 -.00000026  00000-0  16482-4 0  9990,2 51976  53.2163 172.4161 0001286  88.1483 271.9657 15.08841532131831,6917.876,95.437,540.63,538.851,0.0
